{
  "norad_id": 36111,
  "name": "COSMOS 2456 [GLONASS-M]",
  "history": [
    {
      "epoch": "2026-03-27T11:08:31.240608Z",
      "apogee_km": 19146.443932590846,
      "perigee_km": 19113.105092244117,
      "latitude_deg": -18.8772193009216,
      "longitude_deg": -89.10018747615968,
      "height_km": 19140.302632551942,
      "semi_major_axis_km": 25507.91151241748,
      "eccentricity": 0.0006535,
      "inclination_deg": 64.9641,
      "raan_deg": 73.7582,
      "arg_perigee_deg": 309.8449,
      "mean_anomaly_deg": 251.0676,
      "mean_motion_rev_day": 2.13103415
    }
  ]
}